NORAD_CAT_ID,OBJECT_NAME,OBJECT_TYPE,EPOCH,MEAN_MOTION,ECCENTRICITY,INCLINATION,RA_OF_ASC_NODE,ARG_OF_PERICENTER,MEAN_ANOMALY,BSTAR,MEAN_MOTION_DOT,MEAN_MOTION_DDOT,TLE_LINE0,TLE_LINE1,TLE_LINE2,SEMIMAJOR_AXIS,PERIOD,APOGEE,PERIGEE,DECAYED
54762.0,STARLINK-5214,PAYLOAD,2023-03-01 21:46:23,15.08840923,9.78e-05,53.2192,319.3094,86.9258,273.1846,-0.00016537,-2.919e-05,0.0,0 STARLINK-5214,1 54762U 22175E   23060.90721577 -.00002919  00000-0 -16537-3 0  9998,2 54762  53.2192 319.3094 0000978  86.9258 273.1846 15.08840923 13284,6917.878,95.437,540.419,539.066,0.0
54762.0,STARLINK-5214,PAYLOAD,2023-03-02 02:32:31,15.08853911,9.59e-05,53.2187,318.4178,117.706,242.4029,-4.9391e-05,-1.074e-05,0.0,0 STARLINK-5214,1 54762U 22175E   23061.10592294 -.00001074  00000-0 -49391-4 0  9999,2 54762  53.2187 318.4178 0000959 117.7060 242.4029 15.08853911 11151,6917.838,95.437,540.366,539.039,0.0
54762.0,STARLINK-5214,PAYLOAD,2023-03-02 16:51:00,15.08822054,9.59e-05,53.2188,315.7444,140.9166,219.1896,0.00035746,5.403e-05,0.0,0 STARLINK-5214,1 54762U 22175E   23061.70209218  .00005403  00000-0  35746-3 0  9992,2 54762  53.2188 315.7444 0000959 140.9166 219.1896 15.08822054 13400,6917.935,95.439,540.464,539.137,0.0
54762.0,STARLINK-5214,PAYLOAD,2023-03-03 02:23:17,15.08851288,6.99e-05,53.2189,313.9572,163.3148,196.7868,0.00044266,6.766e-05,0.0,0 STARLINK-5214,1 54762U 22175E   23062.09951223  .00006766  00000-0  44266-3 0  9995,2 54762  53.2189 313.9572 0000699 163.3148 196.7868 15.08851288 13469,6917.846,95.437,540.194,539.227,0.0
54762.0,STARLINK-5214,PAYLOAD,2023-03-03 23:03:18,15.08862218,7.14e-05,53.2201,310.0955,126.3399,233.7659,9.5693e-05,1.237e-05,0.0,0 STARLINK-5214,1 54762U 22175E   23062.96063447  .00001237  00000-0  95693-4 0  9992,2 54762  53.2201 310.0955 0000714 126.3399 233.7659 15.08862218 11432,6917.812,95.436,540.171,539.184,0.0
54762.0,STARLINK-5214,PAYLOAD,2023-03-04 02:14:04,15.08866738,6.36e-05,53.2192,309.5001,122.6867,237.4187,0.00011218,1.499e-05,0.0,0 STARLINK-5214,1 54762U 22175E   23063.09310880  .00001499  00000-0  11218-3 0  9993,2 54762  53.2192 309.5001 0000636 122.6867 237.4187 15.08866738 13618,6917.799,95.436,540.104,539.224,0.0
54762.0,STARLINK-5214,PAYLOAD,2023-03-04 16:32:35,15.08842326,7.4e-05,53.2188,306.8203,119.6028,240.5038,-0.00029102,-4.916e-05,0.0,0 STARLINK-5214,1 54762U 22175E   23063.68929637 -.00004916  00000-0 -29102-3 0  9994,2 54762  53.2188 306.8203 0000740 119.6028 240.5038 15.08842326 11545,6917.873,95.437,540.25,539.226,0.0
54762.0,STARLINK-5214,PAYLOAD,2023-03-05 02:04:53,15.08840214,6.74e-05,53.2178,305.0361,111.1127,248.9937,-0.00024235,-4.142e-05,0.0,0 STARLINK-5214,1 54762U 22175E   23064.08673600 -.00004142  00000-0 -24235-3 0  9998,2 54762  53.2178 305.0361 0000674 111.1127 248.9937 15.08840214 13763,6917.88,95.438,540.211,539.278,0.0
54762.0,STARLINK-5214,PAYLOAD,2023-03-05 22:44:52,15.08861563,5.85e-05,53.2173,301.1712,51.1991,308.9053,-2.5356e-05,-6.91e-06,0.0,0 STARLINK-5214,1 54762U 22175E   23064.94783557 -.00000691  00000-0 -25356-4 0  9997,2 54762  53.2173 301.1712 0000585  51.1991 308.9053 15.08861563 11739,6917.814,95.436,540.084,539.275,0.0
54762.0,STARLINK-5214,PAYLOAD,2023-03-06 16:14:09,15.08824474,8.24e-05,53.217,297.8985,60.7053,299.4022,2.9552e-05,1.83e-06,0.0,0 STARLINK-5214,1 54762U 22175E   23065.67650013  .00000183  00000-0  29552-4 0  9994,2 54762  53.2170 297.8985 0000824  60.7053 299.4022 15.08824474 11842,6917.928,95.439,540.363,539.223,0.0
54762.0,STARLINK-5214,PAYLOAD,2023-03-06 22:35:41,15.08835048,7.47e-05,53.2182,296.7109,38.9173,321.1873,0.00010464,1.378e-05,0.0,0 STARLINK-5214,1 54762U 22175E   23065.94145330  .00001378  00000-0  10464-3 0  9993,2 54762  53.2182 296.7109 0000747  38.9173 321.1873 15.08835048 14046,6917.896,95.438,540.277,539.244,0.0
54762.0,STARLINK-5214,PAYLOAD,2023-03-07 01:46:27,15.08837839,9.28e-05,53.2175,296.1159,61.9545,298.1541,0.00012343,1.677e-05,0.0,0 STARLINK-5214,1 54762U 22175E   23066.07393129  .00001677  00000-0  12343-3 0  9999,2 54762  53.2175 296.1159 0000928  61.9545 298.1541 15.08837839 11904,6917.887,95.438,540.394,539.11,0.0
54762.0,STARLINK-5214,PAYLOAD,2023-03-08 20:41:53,15.08836896,0.0001219,53.2166,288.0873,77.854,282.2589,-3.6633e-05,-8.71e-06,0.0,0 STARLINK-5214,1 54762U 22175E   23067.86241996 -.00000871  00000-0 -36633-4 0  9997,2 54762  53.2166 288.0873 0001219  77.8540 282.2589 15.08836896 14330,6917.89,95.438,540.598,538.912,0.0
54762.0,STARLINK-5214,PAYLOAD,2023-03-08 23:52:39,15.08838907,0.0001281,53.2166,287.4926,77.0016,283.1119,-1.9334e-05,-5.96e-06,0.0,0 STARLINK-5214,1 54762U 22175E   23067.99489870 -.00000596  00000-0 -19334-4 0  9999,2 54762  53.2166 287.4926 0001281  77.0016 283.1119 15.08838907 12197,6917.884,95.438,540.635,538.863,0.0
54762.0,STARLINK-5214,PAYLOAD,2023-03-09 20:32:39,15.08839895,0.0001181,53.2171,283.6249,90.5465,269.5662,0.00010441,1.374e-05,0.0,0 STARLINK-5214,1 54762U 22175E   23068.85601084  .00001374  00000-0  10441-3 0  9990,2 54762  53.2171 283.6249 0001181  90.5465 269.5662 15.08839895 14488,6917.881,95.438,540.563,538.929,0.0
54762.0,STARLINK-5214,PAYLOAD,2023-03-09 23:43:24,15.08853915,0.0001124,53.2185,283.0314,78.0014,282.1104,0.00020395,2.961e-05,0.0,0 STARLINK-5214,1 54762U 22175E   23068.98847972  .00002961  00000-0  20395-3 0  9994,2 54762  53.2185 283.0314 0001124  78.0014 282.1104 15.08853915 12342,6917.838,95.437,540.48,538.925,0.0
54762.0,STARLINK-5214,PAYLOAD,2023-03-10 07:40:21,15.08833516,0.0001049,53.2173,281.5434,97.9034,262.2077,3.9652e-05,3.43e-06,0.0,0 STARLINK-5214,1 54762U 22175E   23069.31969604  .00000343  00000-0  39652-4 0  9998,2 54762  53.2173 281.5434 0001049  97.9034 262.2077 15.08833516 12391,6917.9,95.438,540.491,539.04,0.0
54762.0,STARLINK-5214,PAYLOAD,2023-03-10 20:23:27,15.08832481,0.0001152,53.2177,279.1654,91.5105,268.6019,-4.6725e-05,-1.031e-05,0.0,0 STARLINK-5214,1 54762U 22175E   23069.84962279 -.00001031  00000-0 -46725-4 0  9993,2 54762  53.2177 279.1654 0001152  91.5105 268.6019 15.08832481 14631,6917.903,95.438,540.565,538.971,0.0
54762.0,STARLINK-5214,PAYLOAD,2023-03-11 13:52:41,15.08847317,0.000105,53.2171,275.8948,81.511,278.6001,-9.7522e-05,-1.84e-05,0.0,0 STARLINK-5214,1 54762U 22175E   23070.57825871 -.00001840  00000-0 -97522-4 0  9990,2 54762  53.2171 275.8948 0001050  81.5110 278.6001 15.08847317 14744,6917.858,95.437,540.449,538.997,0.0
54762.0,STARLINK-5214,PAYLOAD,2023-03-12 12:08:05,15.08837468,8.35e-05,53.2182,271.7348,82.7367,277.372,5.7193e-05,6.23e-06,0.0,0 STARLINK-5214,1 54762U 22175E   23071.50561628  .00000623  00000-0  57193-4 0  9997,2 54762  53.2182 271.7348 0000835  82.7367 277.3720 15.08837468 14887,6917.888,95.438,540.331,539.175,0.0
54762.0,STARLINK-5214,PAYLOAD,2023-03-12 20:05:01,15.08823946,9.35e-05,53.2176,270.2471,83.6604,276.4495,0.00019565,2.826e-05,0.0,0 STARLINK-5214,1 54762U 22175E   23071.83682127  .00002826  00000-0  19565-3 0  9998,2 54762  53.2176 270.2471 0000935  83.6604 276.4495 15.08823946 12777,6917.929,95.439,540.441,539.148,0.0
54762.0,STARLINK-5214,PAYLOAD,2023-03-13 11:58:52,15.08837087,0.000113,53.2184,267.2733,105.9278,254.1839,-4.4037e-05,-9.89e-06,0.0,0 STARLINK-5214,1 54762U 22175E   23072.49922436 -.00000989  00000-0 -44037-4 0  9994,2 54762  53.2184 267.2733 0001130 105.9278 254.1839 15.08837087 15034,6917.889,95.438,540.536,538.973,0.0
54762.0,STARLINK-5214,PAYLOAD,2023-03-13 23:06:34,15.08839483,0.0001158,53.2182,265.1919,105.041,255.071,-1.5718e-05,-5.38e-06,0.0,0 STARLINK-5214,1 54762U 22175E   23072.96290207 -.00000538  00000-0 -15718-4 0  9994,2 54762  53.2182 265.1919 0001158 105.0410 255.0710 15.08839483 12941,6917.882,95.438,540.548,538.946,0.0
54762.0,STARLINK-5214,PAYLOAD,2023-03-14 11:49:39,15.08844753,0.0001516,53.2179,262.8136,96.1416,263.9749,-3.2411e-05,-8.04e-06,0.0,0 STARLINK-5214,1 54762U 22175E   23073.49282117 -.00000804  00000-0 -32411-4 0  9999,2 54762  53.2179 262.8136 0001516  96.1416 263.9749 15.08844753 15181,6917.866,95.437,540.78,538.682,0.0
54762.0,STARLINK-5214,PAYLOAD,2023-03-14 21:21:57,15.0884883,0.0001525,53.2184,261.0294,104.4243,255.6918,3.1463e-05,2.13e-06,0.0,0 STARLINK-5214,1 54762U 22175E   23073.89025409  .00000213  00000-0  31463-4 0  9990,2 54762  53.2184 261.0294 0001525 104.4243 255.6918 15.08848830 15247,6917.853,95.437,540.773,538.663,0.0
54762.0,STARLINK-5214,PAYLOAD,2023-03-15 11:40:26,15.08840989,0.0001226,53.2169,258.3501,96.2322,263.881,4.0042e-05,3.49e-06,0.0,0 STARLINK-5214,1 54762U 22175E   23074.48641920  .00000349  00000-0  40042-4 0  9991,2 54762  53.2169 258.3501 0001226  96.2322 263.8810 15.08840989 13173,6917.877,95.437,540.59,538.894,0.0
54762.0,STARLINK-5214,PAYLOAD,2023-03-15 21:12:44,15.08845713,0.0001217,53.216,256.5672,94.2153,265.8978,6.8289e-05,7.99e-06,0.0,0 STARLINK-5214,1 54762U 22175E   23074.88385319  .00000799  00000-0  68289-4 0  9994,2 54762  53.2160 256.5672 0001217  94.2153 265.8978 15.08845713 15396,6917.863,95.437,540.57,538.886,0.0
54762.0,STARLINK-5214,PAYLOAD,2023-03-16 05:09:41,15.08834143,0.0001725,53.214,255.0799,80.9259,279.1928,-7.8031e-05,-1.53e-05,0.0,0 STARLINK-5214,1 54762U 22175E   23075.21506738 -.00001530  00000-0 -78031-4 0  9994,2 54762  53.2140 255.0799 0001725  80.9259 279.1928 15.08834143 13285,6917.898,95.438,540.957,538.57,0.0
54762.0,STARLINK-5214,PAYLOAD,2023-03-16 13:06:37,15.08835748,0.0001542,53.2144,253.5919,77.5823,282.5342,-0.00011084,-2.051e-05,0.0,0 STARLINK-5214,1 54762U 22175E   23075.54626804 -.00002051  00000-0 -11084-3 0  9990,2 54762  53.2144 253.5919 0001542  77.5823 282.5342 15.08835748 15497,6917.893,95.438,540.825,538.692,0.0
54762.0,STARLINK-5214,PAYLOAD,2023-03-16 21:03:33,15.08833094,0.0001505,53.2158,252.1059,76.5495,283.5664,-0.00012295,-2.244e-05,0.0,0 STARLINK-5214,1 54762U 22175E   23075.87747114 -.00002244  00000-0 -12295-3 0  9993,2 54762  53.2158 252.1059 0001505  76.5495 283.5664 15.08833094 15541,6917.901,95.438,540.808,538.725,0.0
